SHIYAN-1 (SY-1)         
1 28220U 04012A   26192.77436816  .00008284  00000+0  25129-3 0  9996
2 28220  97.8693 272.4503 0004078 291.7953  68.2854 15.34395437214864
SINAH 1                 
1 28893U 05043D   26192.92952773  .00000157  00000+0  39127-4 0  9994
2 28893  98.2889 327.4012 0014151 193.8296 166.2520 14.64174290104145
SKYSAT-A                
1 39418U 13066C   26192.92535079  .00001480  00000+0  86826-4 0  9997
2 39418  97.3805 241.5341 0020183 225.2191 134.7400 15.13105178692227
SKYSAT-B                
1 40072U 14037D   26192.87034045  .00000667  00000+0  79264-4 0  9999
2 40072  98.3853 153.2453 0005309 183.3680 176.7500 14.88087332649638
SKYSAT-C1               
1 41601U 16040C   26192.63835800  .00005514  00000+0  15589-3 0  9991
2 41601  96.9557 223.0369 0000645 355.4804   4.6435 15.36708815561620
SENTINEL-5P             
1 42969U 17064A   26192.80146014  .00000008  00000+0  24611-4 0  9997
2 42969  98.7929 134.7584 0001112  92.2595 267.8708 14.19522945453052
SKYSAT-C10              
1 42988U 17068B   26192.93609118  .00006459  00000+0  19221-3 0  9991
2 42988  97.4526 330.0351 0001403 108.5337 251.6059 15.35074302486158
SENTINEL-3B             
1 43437U 18039A   26192.17410468  .00000038  00000+0  33847-4 0  9992
2 43437  98.6238 259.3610 0001054 120.7417 239.3868 14.26741288427541
SENTINEL-6A             
1 46984U 20086A   26192.83555476 -.00000071  00000+0 -42358-4 0  9995
2 46984  66.0413  83.8588 0007811 269.9235  90.0885 12.80930061263489
SENTINEL-6B             
1 66514U 25264A   26192.83590267 -.00000071  00000+0 -41261-4 0  9998
2 66514  66.0413  83.9841 0007873 268.7579  91.2534 12.80930071 30329
